NORAD_CAT_ID,OBJECT_NAME,OBJECT_TYPE,EPOCH,MEAN_MOTION,ECCENTRICITY,INCLINATION,RA_OF_ASC_NODE,ARG_OF_PERICENTER,MEAN_ANOMALY,BSTAR,MEAN_MOTION_DOT,MEAN_MOTION_DDOT,TLE_LINE0,TLE_LINE1,TLE_LINE2,SEMIMAJOR_AXIS,PERIOD,APOGEE,PERIGEE,DECAYED
52853.0,STARLINK-4189,PAYLOAD,2024-05-28 11:32:00,15.08843124,0.0001253,53.2168,62.9909,106.3519,253.7611,7.1473e-05,8.5e-06,0.0,0 STARLINK-4189,1 52853U 22062Z   24149.48055750  .00000850  00000-0  71473-4 0  9998,2 52853  53.2168  62.9909 0001253 106.3519 253.7611 15.08843124107763,6917.871,95.437,540.603,538.869,0.0
52853.0,STARLINK-4189,PAYLOAD,2024-05-28 22:39:43,15.08831573,0.0001578,53.2175,60.9013,119.5982,240.5167,-0.00012399,-2.26e-05,0.0,0 STARLINK-4189,1 52853U 22062Z   24149.94425396 -.00002260  00000-0 -12399-3 0  9996,2 52853  53.2175  60.9013 0001578 119.5982 240.5167 15.08831573107838,6917.906,95.438,540.863,538.68,0.0
52853.0,STARLINK-4189,PAYLOAD,2024-05-29 03:25:53,15.08831708,0.0001458,53.2183,60.0132,98.3805,261.7352,-0.0001165,-2.141e-05,0.0,0 STARLINK-4189,1 52853U 22062Z   24150.14297641 -.00002141  00000-0 -11650-3 0  9997,2 52853  53.2183  60.0132 0001458  98.3805 261.7352 15.08831708108354,6917.906,95.438,540.779,538.762,0.0
52853.0,STARLINK-4189,PAYLOAD,2024-05-29 22:30:29,15.08844141,0.0001335,53.2167,56.4532,93.9898,266.1246,0.00010316,1.354e-05,0.0,0 STARLINK-4189,1 52853U 22062Z   24150.93784663  .00001354  00000-0  10316-3 0  9990,2 52853  53.2167  56.4532 0001335  93.9898 266.1246 15.08844141107980,6917.868,95.437,540.656,538.809,0.0
52853.0,STARLINK-4189,PAYLOAD,2024-05-30 03:16:38,15.08851028,0.000148,53.2184,55.5547,82.9373,277.1788,0.00013867,1.92e-05,0.0,0 STARLINK-4189,1 52853U 22062Z   24151.13656092  .00001920  00000-0  13867-3 0  9990,2 52853  53.2184  55.5547 0001480  82.9373 277.1788 15.08851028108506,6917.847,95.437,540.736,538.688,0.0
52853.0,STARLINK-4189,PAYLOAD,2024-05-30 03:16:39,15.08848046,0.0001713,53.219,55.5498,93.6693,266.4495,0.0001379,1.908e-05,0.0,0 STARLINK-4189,1 52853U 22062Z   24151.13656279  .00001908  00000-0  13790-3 0  9998,2 52853  53.2190  55.5498 0001713  93.6693 266.4495 15.08848046108019,6917.856,95.437,540.906,538.536,0.0
52853.0,STARLINK-4189,PAYLOAD,2024-05-30 22:21:16,15.08852115,0.0001686,53.2188,51.984,98.7137,261.4046,0.00025738,3.812e-05,0.0,0 STARLINK-4189,1 52853U 22062Z   24151.93143815  .00003812  00000-0  25738-3 0  9994,2 52853  53.2188  51.9840 0001686  98.7137 261.4046 15.08852115108137,6917.843,95.437,540.875,538.542,0.0
52853.0,STARLINK-4189,PAYLOAD,2024-05-31 03:07:25,15.08853856,0.0001734,53.2189,51.0924,106.6396,253.4786,0.00025887,3.836e-05,0.0,0 STARLINK-4189,1 52853U 22062Z   24152.13015615  .00003836  00000-0  25887-3 0  9994,2 52853  53.2189  51.0924 0001734 106.6396 253.4786 15.08853856108160,6917.838,95.437,540.903,538.503,0.0
52853.0,STARLINK-4189,PAYLOAD,2024-05-31 20:36:39,15.08854424,0.0001867,53.2165,47.822,122.1711,237.9462,6.5536e-05,7.55e-06,0.0,0 STARLINK-4189,1 52853U 22062Z   24152.85879481  .00000755  00000-0  65536-4 0  9995,2 52853  53.2165  47.8220 0001867 122.1711 237.9462 15.08854424108763,6917.836,95.437,540.993,538.41,0.0
52853.0,STARLINK-4189,PAYLOAD,2024-05-31 22:12:02,15.08854778,0.000176,53.218,47.5251,118.2299,241.8871,6.6321e-05,7.68e-06,0.0,0 STARLINK-4189,1 52853U 22062Z   24152.92503463  .00000768  00000-0  66321-4 0  9994,2 52853  53.2180  47.5251 0001760 118.2299 241.8871 15.08854778108287,6917.835,95.437,540.918,538.483,0.0
52853.0,STARLINK-4189,PAYLOAD,2024-06-01 02:58:12,15.08857527,0.0001414,53.2173,46.6346,92.277,267.8384,9.6296e-05,1.246e-05,0.0,0 STARLINK-4189,1 52853U 22062Z   24153.12375231  .00001246  00000-0  96296-4 0  9993,2 52853  53.2173  46.6346 0001414  92.2770 267.8384 15.08857527108311,6917.827,95.436,540.67,538.714,0.0
52853.0,STARLINK-4189,PAYLOAD,2024-06-01 20:27:27,15.0884043,0.0001451,53.2183,43.3647,97.4354,262.6803,-5.752e-05,-1.203e-05,0.0,0 STARLINK-4189,1 52853U 22062Z   24153.85240490 -.00001203  00000-0 -57520-4 0  9993,2 52853  53.2183  43.3647 0001451  97.4354 262.6803 15.08840430108916,6917.879,95.438,540.748,538.74,0.0
52853.0,STARLINK-4189,PAYLOAD,2024-06-02 09:10:32,15.08838394,0.000131,53.2172,40.9868,78.9834,281.1305,-0.00011397,-2.101e-05,0.0,0 STARLINK-4189,1 52853U 22062Z   24154.38232076 -.00002101  00000-0 -11397-3 0  9992,2 52853  53.2172  40.9868 0001310  78.9834 281.1305 15.08838394108507,6917.885,95.438,540.657,538.844,0.0
52853.0,STARLINK-4189,PAYLOAD,2024-06-02 23:29:00,15.08842706,0.0001152,53.2167,38.3099,73.3285,286.7833,6.6e-05,7.63e-06,0.0,0 STARLINK-4189,1 52853U 22062Z   24154.97848033  .00000763  00000-0  66000-4 0  9995,2 52853  53.2167  38.3099 0001152  73.3285 286.7833 15.08842706109084,6917.872,95.437,540.534,538.94,0.0
52853.0,STARLINK-4189,PAYLOAD,2024-06-03 09:01:19,15.08842542,0.0001099,53.216,36.5259,74.2648,285.8465,7.9693e-05,9.81e-06,0.0,0 STARLINK-4189,1 52853U 22062Z   24155.37592111  .00000981  00000-0  79693-4 0  9997,2 52853  53.2160  36.5259 0001099  74.2648 285.8465 15.08842542108659,6917.873,95.437,540.498,538.977,0.0
52853.0,STARLINK-4189,PAYLOAD,2024-06-04 00:55:11,15.08840875,0.0001131,53.2154,33.5521,70.9309,289.1805,0.00016693,2.37e-05,0.0,0 STARLINK-4189,1 52853U 22062Z   24156.03832399  .00002370  00000-0  16693-3 0  9990,2 52853  53.2154  33.5521 0001131  70.9309 289.1805 15.08840875109243,6917.878,95.437,540.525,538.96,0.0
52853.0,STARLINK-4189,PAYLOAD,2024-06-04 08:52:06,15.08842675,6.37e-05,53.2187,32.0662,101.0553,259.0511,0.00013532,1.867e-05,0.0,0 STARLINK-4189,1 52853U 22062Z   24156.36952154  .00001867  00000-0  13532-3 0  9997,2 52853  53.2187  32.0662 0000637 101.0553 259.0511 15.08842675108807,6917.872,95.437,540.178,539.297,0.0
52853.0,STARLINK-4189,PAYLOAD,2024-06-04 23:10:33,15.08869499,8.15e-05,53.2191,29.3909,97.1108,262.9977,-0.0004633,-7.659e-05,0.0,0 STARLINK-4189,1 52853U 22062Z   24156.96566938 -.00007659  00000-0 -46330-3 0  9993,2 52853  53.2191  29.3909 0000815  97.1108 262.9977 15.08869499109380,6917.79,95.436,540.219,539.091,0.0
52853.0,STARLINK-4189,PAYLOAD,2024-06-05 08:42:54,15.08834278,0.0001789,53.2183,27.6024,88.9751,271.1446,0.00011438,1.532e-05,0.0,0 STARLINK-4189,1 52853U 22062Z   24157.36312978  .00001532  00000-0  11438-3 0  9994,2 52853  53.2183  27.6024 0001789  88.9751 271.1446 15.08834278109440,6917.898,95.438,541.0,538.525,0.0
52853.0,STARLINK-4189,PAYLOAD,2024-06-05 15:04:26,15.08835772,0.0001415,53.2151,26.4173,86.6869,273.4285,1.2224e-05,-9.3e-07,0.0,0 STARLINK-4189,1 52853U 22062Z   24157.62808808 -.00000093  00000-0  12224-4 0  9992,2 52853  53.2151  26.4173 0001415  86.6869 273.4285 15.08835772108993,6917.893,95.438,540.737,538.779,0.0
52853.0,STARLINK-4189,PAYLOAD,2024-06-05 21:25:59,15.08835153,0.0001681,53.2155,25.2275,86.7721,273.3463,2.7172e-06,-2.45e-06,0.0,0 STARLINK-4189,1 52853U 22062Z   24157.89305051 -.00000245  00000-0  27172-5 0  9991,2 52853  53.2155  25.2275 0001681  86.7721 273.3463 15.08835153109036,6917.895,95.438,540.923,538.597,0.0
52853.0,STARLINK-4189,PAYLOAD,2024-06-06 08:33:41,15.08836495,0.0001532,53.2157,23.1461,88.8647,271.252,7.3847e-05,8.87e-06,0.0,0 STARLINK-4189,1 52853U 22062Z   24158.35673133  .00000887  00000-0  73847-4 0  9992,2 52853  53.2157  23.1461 0001532  88.8647 271.2520 15.08836495109106,6917.891,95.438,540.816,538.696,0.0
52853.0,STARLINK-4189,PAYLOAD,2024-06-07 00:27:32,15.08851528,0.0001346,53.2148,20.1713,90.6864,269.4283,0.00010376,1.364e-05,0.0,0 STARLINK-4189,1 52853U 22062Z   24159.01912385  .00001364  00000-0  10376-3 0  9999,2 52853  53.2148  20.1713 0001346  90.6864 269.4283 15.08851528109691,6917.845,95.437,540.641,538.779,0.0
52853.0,STARLINK-4189,PAYLOAD,2024-06-07 21:07:33,15.08842122,0.0001471,53.2073,16.3025,99.2617,260.8542,9.0841e-05,1.158e-05,0.0,0 STARLINK-4189,1 52853U 22062Z   24159.88024931  .00001158  00000-0  90841-4 0  9992,2 52853  53.2073  16.3025 0001471  99.2617 260.8542 15.08842122109829,6917.874,95.437,540.757,538.721,0.0
52853.0,STARLINK-4189,PAYLOAD,2024-06-08 14:36:48,15.08840801,0.0001117,53.2147,13.0317,103.1248,256.9868,0.00010171,1.331e-05,0.0,0 STARLINK-4189,1 52853U 22062Z   24160.60888989  .00001331  00000-0  10171-3 0  9995,2 52853  53.2147  13.0317 0001117 103.1248 256.9868 15.08840801109448,6917.878,95.438,540.516,538.97,0.0
52853.0,STARLINK-4189,PAYLOAD,2024-06-08 20:58:20,15.08847229,0.0001868,53.2033,11.8398,95.0141,265.1065,0.00012,1.623e-05,0.0,0 STARLINK-4189,1 52853U 22062Z   24160.87384697  .00001623  00000-0  12000-3 0  9998,2 52853  53.2033  11.8398 0001868  95.0141 265.1065 15.08847229109487,6917.858,95.437,541.016,538.431,0.0
52853.0,STARLINK-4189,PAYLOAD,2024-06-09 00:09:06,15.08845208,0.0001197,53.2185,11.2511,90.5489,269.564,0.00022306,3.264e-05,0.0,0 STARLINK-4189,1 52853U 22062Z   24161.00632697  .00003264  00000-0  22306-3 0  9993,2 52853  53.2185  11.2511 0001197  90.5489 269.5640 15.08845208109994,6917.864,95.437,540.558,538.901,0.0
52853.0,STARLINK-4189,PAYLOAD,2024-06-09 20:49:08,15.08817779,0.0001278,53.2159,7.3854,85.955,274.1589,0.00031514,4.728e-05,0.0,0 STARLINK-4189,1 52853U 22062Z   24161.86746310  .00004728  00000-0  31514-3 0  9992,2 52853  53.2159   7.3854 0001278  85.9550 274.1589 15.08817779110121,6917.948,95.439,540.697,538.929,0.0
52853.0,STARLINK-4189,PAYLOAD,2024-06-10 06:21:27,15.08814088,0.000124,53.2172,5.6012,84.7262,275.3872,0.00041472,6.314e-05,0.0,0 STARLINK-4189,1 52853U 22062Z   24162.26490614  .00006314  00000-0  41472-3 0  9997,2 52853  53.2172   5.6012 0001240  84.7262 275.3872 15.08814088109697,6917.96,95.439,540.682,538.967,0.0
52853.0,STARLINK-4189,PAYLOAD,2024-06-10 20:39:54,15.08846727,0.0001209,53.2191,2.9255,86.9982,273.1148,9.8937e-05,1.287e-05,0.0,0 STARLINK-4189,1 52853U 22062Z   24162.86105115  .00001287  00000-0  98937-4 0  9995,2 52853  53.2191   2.9255 0001209  86.9982 273.1148 15.08846727110278,6917.86,95.437,540.561,538.888,0.0
